#dP2021  7 23 18  0  0.00000000      96 __u+U ITR00 EXT  IAC
## 2167 496800.00000000   900.00000000 59418 0.7500000000000
+  116   C06C07C08C09C10C11C12C13C14C16C19C20C21C22C23C24C25
+        C26C27C28C29C30C32C33C34C35C36C37C38C39C40C41C42C43
+        C44C45C46E01E02E03E04E05E07E08E09E11E12E13E14E15E18
+        E19E21E24E25E26E27E30E31E33E36G01G02G03G04G06G07G08
+        G09G10G11G12G13G14G15G16G17G18G19G20G21G22G23G24G25
+        G26G27G28G29G30G31G32J01J02J03R01R02R03R04R05R07R08
+        R09R11R12R13R14R15R16R17R18R19R20R21R22R24  0  0  0
++        10 10  8  9  9  9 11  9  9  9  8 10 10 10  9  9  8
++         9  8  7  8  8  9  9  8  9  9  9  7 10 10  8  9  9
++         9  9  7  9  9  9  7  8  8  7  7  7  7  8 10  8  8
++         7  8  9  8  8  8  8  7  8  7  8  8  7  8  7  8 10
++         7  8  8  8  8  8  7  8  7  6  8  9  7  8  6  8  6
++         7  7  7  6  8  7  8 10 10 11  7  9  7  6  8  9  7
++         8  9  8  8  8  9  9  9 10  7 10  9  9 10  0  0  0
%c M  cc GPS ccc cccc cccc cccc cccc ccccc ccccc ccccc ccccc
%c cc cc ccc ccc cccc cccc cccc cccc ccccc ccccc ccccc ccccc
%f  0.0000000  0.000000000  0.00000000000  0.000000000000000
%f  0.0000000  0.000000000  0.00000000000  0.000000000000000
%i    0    0    0    0      0      0      0      0         0
%i    0    0    0    0      0      0      0      0         0
/* IAC                                ULTRA-RAPID PREDICTION
/* S/V CLOCKS ARE ALIGNED TO GNSS TIME                      
/* G:C1WC2W R:C1PC2P E:C1XC5X C:C2IC6I J:C1CC2S             
/* PCV:IGS14_2163 OL/AL:FES2004  NONE     YN ORB:CoN CLK:CoN
*  2021 07 23 19 15  0.00000000
PC06 -20853.655028  35493.905905   8305.737299    662.284342
PC07  -7213.716379  32802.273676  26084.893119     89.538547
PC08 -17059.144607  17875.872739 -34132.212685   -908.725616
PC09 -10279.307472  34846.095826  21334.959395    351.617784
PC10   3472.548390  38402.453222  17837.793422    -15.749857
PC11  20072.511995 -19278.834751  -1612.983272    474.935534
PC12  21021.752950  -5561.029288 -17447.968823    802.723029
PC13  -2026.048575  22465.349930 -35533.602416    347.389316
PC14  10428.631425 -15185.969073  20966.115248    780.796489
PC16 -19666.898681  35928.198990   9660.234739   -901.192945
PC19  -3743.767618  23018.463267 -15317.653232    919.960480
PC20 -14341.578934   6981.908197 -22885.950298   -837.096726
PC21  16896.808979  14180.322834  17124.693892   -936.625465
PC22   9320.567754  26286.524882   1374.420432   -948.592854
PC23 -11432.424862 -16729.912153 -19172.635053   -966.677915
PC24  25198.099183  -2772.717624 -11643.038512   -953.865162
PC25   8713.742398 -14443.339017 -22228.489565   -881.389656
PC26  26161.764216   8576.722120   4443.502231    874.610212
PC27 -17061.676350  -3809.759292  21725.354677    569.144092
PC28  -1784.358636 -18775.605110  20562.262224    -47.130746
PC29 -13633.401927  23230.658468  -7310.682774    423.490802
PC30 -21838.292103  13706.561129  10644.821804    475.039366
PC32 -16989.430979 -14062.482198 -17076.542917   -925.884864
PC33   3735.423600 -22960.582908  15403.853713   -946.435299
PC34  21834.940796 -14264.357424  -9966.595587   -621.445010
PC35   2154.746091  18956.766602 -20365.094944   -173.477404
PC36  -9477.781029  14094.734353  22173.172126   -735.520752
PC37 -25628.246687  -9701.940153  -5291.631474   -863.405202
PC38 -15133.379137  20942.683193 -33341.444710    163.684960
PC39 -17003.696075  37219.265843   9849.935091     32.558787
PC40   -776.548781  36346.740422  21526.302067    183.353966
PC41  -9158.921412 -26340.735447   -979.812794   -965.139177
PC42  14751.883035  -6074.292063  22937.700568   -922.784999
PC43  14132.143712 -23106.852488   6745.480686   -834.818585
PC44  17188.408327   3491.998754 -21724.402066    304.356658
PC45  11622.329967  16602.834881  19188.306497    501.323359
PC46 -24682.555616   3501.918028  12585.864328    165.439778
PE01  -4346.889384 -21422.586204 -19951.071514  -1156.335965
PE02   4466.393622  21465.954652  19885.797755    234.943989
PE03  -3307.272767  29292.082477   2784.914330   -455.859916
PE04  -9744.825314 -20688.335021 -18783.179034   -819.599357
PE05 -14635.321475  20818.435689 -15117.874290   -262.899151
PE07  17310.501074   -300.341922  24016.950852   -565.177009
PE08   9935.416084  20344.125720  19080.409583   5965.665493
PE09 -17188.555540    655.891782 -24084.434759   5590.522309
PE11 -27669.039148   3186.786638   9991.911126   5678.955479
PE12 -14669.963686 -10840.941826  23300.076043   5096.426980
PE13  27539.414511  -2969.051398 -10443.499270    419.389852
PE14 -13271.392028  -7044.426726  18178.396722  -1510.458927
PE15  14717.687278  10708.395813 -23344.218672    801.901714
PE18  16356.635423  13169.395819 -24694.197899  -1655.739042
PE19   4909.745834 -29184.410842   -562.518371    334.202149
PE21  13580.079839 -10004.907453 -24319.025134   -677.898261
PE24 -24610.070074  -8561.566692  14053.723059  -1023.781384
PE25 -13757.332570   9839.867377  24303.030094   -540.928542
PE26  23616.615395 -15183.463542   9360.700262   1545.244761
PE27  24454.095355   7678.623275 -14793.963348    -82.092454
PE30  20176.179724  21208.792444   4359.731556   2760.306203
PE31 -20886.452587 -20704.350509  -3329.468795   -483.585538
PE33   6742.355208 -18048.219337  22468.768683   -467.275101
PE36 -24113.944851  14868.267688  -8581.314112   -238.466220
PG01   6047.245195  13910.033760 -22106.785727    619.328562
PG02  17944.333640 -14399.151803  13978.889997   -621.595987
PG03  10483.192917  22689.666785  -9239.568362   -229.834162
PG04   1766.356932  22191.512864  14447.987881   -202.901494
PG06  25403.989217  -6835.460936   3931.753414     44.488967
PG07  20427.996749   8056.524732  15648.241557    209.143188
PG08  -5405.913976  25376.668200  -4861.492903    -29.908950
PG09  10728.670193  13089.008954  20403.858243   -356.544653
PG10 -19936.538841  -6541.701069 -16331.253072   -167.931759
PG11  19698.107943 -11611.349941  13493.682457     22.089152
PG12  -8476.467001 -23388.141255  -9745.519212    -72.730360
PG13  13182.228928 -22927.141401   1228.554684    161.588582
PG14  19633.117643   6493.446893 -16698.266909     40.443755
PG15   2094.283862 -25790.797447  -5475.299519   -133.474802
PG16  -6800.186784  14877.514322  20576.985342   -361.889150
PG17  15968.859752  -1847.326765 -20717.222900    478.291824
PG18 -22067.006641  -6167.523913  13487.637085    338.816354
PG19  17851.904980 -10434.125393 -16868.162608     30.163104
PG20   9981.425700 -12087.180139  21412.806516    520.028456
PG21  -2598.392959  15558.301117 -20588.195317    133.027623
PG22   5129.118083  21011.271216 -15368.658101   -556.242039
PG23 -20231.836695 -15699.186786  -7188.826680     80.580427
PG24  -1269.476186 -15969.750149 -21409.594267    184.850599
PG25 -17091.399421 -20518.391604    105.961341    178.652424
PG26 -15165.983658   5974.558785  20951.990911    114.107147
PG27 -12187.248902  22774.904022   5101.548304   -167.412827
PG28  17053.706093   1190.606926 -19728.472011    532.719673
PG29  -7958.726751 -15053.331133  20316.544706   -384.895295
PG30  26273.764497   -211.834185   4748.818827   -454.153701
PG31 -25105.506749   7518.468787   5554.607626   -130.280060
PG32 -16750.891061   5360.035805 -19735.614821     12.408223
PJ01 -20173.883105  28339.923529 -19278.858726   -422.259891
PJ02 -26963.412654  20602.463630  29961.679936     -0.989993
PJ03 -33788.994847  25389.109394   4550.707230     -0.312768
PR01   1897.470612  25209.891667  -3458.423294     82.728717
PR02   9625.726123  17241.032646  16154.621017    487.150007
PR03  10941.441963   -775.617086  23072.072526     40.031096
PR04   5927.936660 -18031.370591  17072.139567     97.100877
PR05  -2189.804488 -25379.302021   1550.149133     75.857524
PR07 -10833.088576   1408.152350 -23012.401084    -41.936435
PR08  -5916.717413  18113.458648 -16891.111558    -60.074203
PR09 -21377.993846 -12220.011342  -6487.656164      4.410872
PR11 -11427.555381   6495.854456  21871.857763     44.919235
PR12   7246.203913  13592.197676  20359.502291    247.723618
PR13  21073.248614  12389.030512   7287.393897    -58.138608
PR14  22744.142741   3837.810619 -10896.948853     66.817691
PR15  11045.608819  -6727.650774 -21961.361713    102.516490
PR16  -8765.103835 -13747.354255 -19678.163778    -18.369014
PR17  20545.615210  -8046.342612 -12759.123547    443.595489
PR18  19284.680340 -16291.685523   3829.531057     84.441837
PR19   8944.836817 -15882.003042  17831.955167   -152.649132
PR20  -9666.523884  -5672.735559  22909.270280    -52.957076
PR21 -20894.601222   8886.261260  11648.819304   -226.084690
PR22 -18863.850136  16390.783167  -4896.883853   -124.159158
PR24  10647.374529   5352.391456 -22541.324686     51.636614
EOF
